[{"OBJECT_NAME":"ONEWEB-0321","OBJECT_ID":"2021-083F","EPOCH":"2025-10-31T19:03:40.283136","MEAN_MOTION":13.20772042,"ECCENTRICITY":0.0002183,"INCLINATION":87.9198,"RA_OF_ASC_NODE":319.9833,"ARG_OF_PERICENTER":97.1623,"MEAN_ANOMALY":262.9758,"EPHEMERIS_TYPE":0,"CLASSIFICATION_TYPE":"U","NORAD_CAT_ID":49191,"ELEMENT_SET_NO":999,"REV_AT_EPOCH":20668,"BSTAR":-1.2157e-5,"MEAN_MOTION_DOT":8.0e-8,"MEAN_MOTION_DDOT":0},{"OBJECT_NAME":"ONEWEB-0322","OBJECT_ID":"2021-083G","EPOCH":"2025-10-31T16:46:14.438208","MEAN_MOTION":13.13473206,"ECCENTRICITY":0.000223,"INCLINATION":87.9021,"RA_OF_ASC_NODE":5.6691,"ARG_OF_PERICENTER":110.2653,"MEAN_ANOMALY":249.8715,"EPHEMERIS_TYPE":0,"CLASSIFICATION_TYPE":"U","NORAD_CAT_ID":49192,"ELEMENT_SET_NO":999,"REV_AT_EPOCH":20092,"BSTAR":0.00097153,"MEAN_MOTION_DOT":3.68e-6,"MEAN_MOTION_DDOT":0},{"OBJECT_NAME":"ONEWEB-0324","OBJECT_ID":"2021-083H","EPOCH":"2025-10-31T17:56:25.295136","MEAN_MOTION":13.1868709,"ECCENTRICITY":0.0001929,"INCLINATION":87.9223,"RA_OF_ASC_NODE":20.8175,"ARG_OF_PERICENTER":96.6356,"MEAN_ANOMALY":263.4996,"EPHEMERIS_TYPE":0,"CLASSIFICATION_TYPE":"U","NORAD_CAT_ID":49193,"ELEMENT_SET_NO":999,"REV_AT_EPOCH":19989,"BSTAR":0.00031211,"MEAN_MOTION_DOT":1.36e-6,"MEAN_MOTION_DDOT":0},{"OBJECT_NAME":"ONEWEB-0325","OBJECT_ID":"2021-083J","EPOCH":"2025-10-31T18:01:09.367104","MEAN_MOTION":13.18687176,"ECCENTRICITY":0.0001886,"INCLINATION":87.9231,"RA_OF_ASC_NODE":20.8353,"ARG_OF_PERICENTER":103.033,"MEAN_ANOMALY":257.1013,"EPHEMERIS_TYPE":0,"CLASSIFICATION_TYPE":"U","NORAD_CAT_ID":49194,"ELEMENT_SET_NO":999,"REV_AT_EPOCH":19990,"BSTAR":8.7156e-6,"MEAN_MOTION_DOT":1.6e-7,"MEAN_MOTION_DDOT":0},{"OBJECT_NAME":"ONEWEB-0326","OBJECT_ID":"2021-083K","EPOCH":"2025-10-31T18:22:44.213664","MEAN_MOTION":13.18687146,"ECCENTRICITY":0.0001521,"INCLINATION":87.9225,"RA_OF_ASC_NODE":20.819,"ARG_OF_PERICENTER":99.2747,"MEAN_ANOMALY":260.8557,"EPHEMERIS_TYPE":0,"CLASSIFICATION_TYPE":"U","NORAD_CAT_ID":49195,"ELEMENT_SET_NO":999,"REV_AT_EPOCH":19989,"BSTAR":0.00023076,"MEAN_MOTION_DOT":1.04e-6,"MEAN_MOTION_DDOT":0},{"OBJECT_NAME":"ONEWEB-0327","OBJECT_ID":"2021-083L","EPOCH":"2025-10-31T18:22:21.100800","MEAN_MOTION":13.18688503,"ECCENTRICITY":0.0001455,"INCLINATION":87.9216,"RA_OF_ASC_NODE":20.8423,"ARG_OF_PERICENTER":104.6917,"MEAN_ANOMALY":255.4376,"EPHEMERIS_TYPE":0,"CLASSIFICATION_TYPE":"U","NORAD_CAT_ID":49196,"ELEMENT_SET_NO":999,"REV_AT_EPOCH":19991,"BSTAR":0.00026986,"MEAN_MOTION_DOT":1.19e-6,"MEAN_MOTION_DDOT":0},{"OBJECT_NAME":"ONEWEB-0328","OBJECT_ID":"2021-083M","EPOCH":"2025-10-31T16:31:38.184960","MEAN_MOTION":13.13469949,"ECCENTRICITY":0.0001902,"INCLINATION":87.9033,"RA_OF_ASC_NODE":5.6131,"ARG_OF_PERICENTER":95.187,"MEAN_ANOMALY":264.9476,"EPHEMERIS_TYPE":0,"CLASSIFICATION_TYPE":"U","NORAD_CAT_ID":49197,"ELEMENT_SET_NO":999,"REV_AT_EPOCH":20090,"BSTAR":0.00067086,"MEAN_MOTION_DOT":2.58e-6,"MEAN_MOTION_DDOT":0},{"OBJECT_NAME":"ONEWEB-0331","OBJECT_ID":"2021-083N","EPOCH":"2025-10-31T18:13:03.095904","MEAN_MOTION":13.18686717,"ECCENTRICITY":0.0001601,"INCLINATION":87.9227,"RA_OF_ASC_NODE":20.8137,"ARG_OF_PERICENTER":92.0132,"MEAN_ANOMALY":268.1183,"EPHEMERIS_TYPE":0,"CLASSIFICATION_TYPE":"U","NORAD_CAT_ID":49198,"ELEMENT_SET_NO":999,"REV_AT_EPOCH":19990,"BSTAR":0.00018999,"MEAN_MOTION_DOT":8.8e-7,"MEAN_MOTION_DDOT":0},{"OBJECT_NAME":"ONEWEB-0333","OBJECT_ID":"2021-083P","EPOCH":"2025-10-31T16:24:18.727776","MEAN_MOTION":13.13471922,"ECCENTRICITY":0.0001845,"INCLINATION":87.9015,"RA_OF_ASC_NODE":5.6743,"ARG_OF_PERICENTER":102.5901,"MEAN_ANOMALY":257.5435,"EPHEMERIS_TYPE":0,"CLASSIFICATION_TYPE":"U","NORAD_CAT_ID":49199,"ELEMENT_SET_NO":999,"REV_AT_EPOCH":20091,"BSTAR":-1.183e-5,"MEAN_MOTION_DOT":8.0e-8,"MEAN_MOTION_DDOT":0},{"OBJECT_NAME":"ONEWEB-0334","OBJECT_ID":"2021-083Q","EPOCH":"2025-10-31T19:28:40.908576","MEAN_MOTION":13.20770546,"ECCENTRICITY":0.0002584,"INCLINATION":87.9189,"RA_OF_ASC_NODE":320.0101,"ARG_OF_PERICENTER":114.1266,"MEAN_ANOMALY":246.0137,"EPHEMERIS_TYPE":0,"CLASSIFICATION_TYPE":"U","NORAD_CAT_ID":49200,"ELEMENT_SET_NO":999,"REV_AT_EPOCH":20664,"BSTAR":-0.00013154,"MEAN_MOTION_DOT":-4.0e-7,"MEAN_MOTION_DDOT":0},{"OBJECT_NAME":"ONEWEB-0335","OBJECT_ID":"2021-083R","EPOCH":"2025-10-31T16:16:59.579040","MEAN_MOTION":13.1347104,"ECCENTRICITY":0.0001698,"INCLINATION":87.9016,"RA_OF_ASC_NODE":5.6632,"ARG_OF_PERICENTER":96.0516,"MEAN_ANOMALY":264.0807,"EPHEMERIS_TYPE":0,"CLASSIFICATION_TYPE":"U","NORAD_CAT_ID":49201,"ELEMENT_SET_NO":999,"REV_AT_EPOCH":20092,"BSTAR":-0.00081535,"MEAN_MOTION_DOT":-2.85e-6,"MEAN_MOTION_DDOT":0},{"OBJECT_NAME":"ONEWEB-0336","OBJECT_ID":"2021-083S","EPOCH":"2025-10-31T17:25:15.441888","MEAN_MOTION":13.1347069,"ECCENTRICITY":0.0001612,"INCLINATION":87.9027,"RA_OF_ASC_NODE":5.6493,"ARG_OF_PERICENTER":87.2517,"MEAN_ANOMALY":272.8797,"EPHEMERIS_TYPE":0,"CLASSIFICATION_TYPE":"U","NORAD_CAT_ID":49202,"ELEMENT_SET_NO":999,"REV_AT_EPOCH":20092,"BSTAR":-0.00031197,"MEAN_MOTION_DOT":-1.01e-6,"MEAN_MOTION_DDOT":0},{"OBJECT_NAME":"ONEWEB-0337","OBJECT_ID":"2021-083T","EPOCH":"2025-10-31T17:39:40.623840","MEAN_MOTION":13.13472186,"ECCENTRICITY":0.0001814,"INCLINATION":87.9037,"RA_OF_ASC_NODE":5.6564,"ARG_OF_PERICENTER":92.6224,"MEAN_ANOMALY":267.5113,"EPHEMERIS_TYPE":0,"CLASSIFICATION_TYPE":"U","NORAD_CAT_ID":49203,"ELEMENT_SET_NO":999,"REV_AT_EPOCH":20092,"BSTAR":-0.00049781,"MEAN_MOTION_DOT":-1.69e-6,"MEAN_MOTION_DDOT":0},{"OBJECT_NAME":"ONEWEB-0338","OBJECT_ID":"2021-083U","EPOCH":"2025-10-31T13:25:01.689312","MEAN_MOTION":13.207727,"ECCENTRICITY":0.0002084,"INCLINATION":87.9193,"RA_OF_ASC_NODE":320.0625,"ARG_OF_PERICENTER":99.7446,"MEAN_ANOMALY":260.3922,"EPHEMERIS_TYPE":0,"CLASSIFICATION_TYPE":"U","NORAD_CAT_ID":49204,"ELEMENT_SET_NO":999,"REV_AT_EPOCH":20663,"BSTAR":-6.3861e-5,"MEAN_MOTION_DOT":-1.3e-7,"MEAN_MOTION_DDOT":0},{"OBJECT_NAME":"ONEWEB-0339","OBJECT_ID":"2021-083V","EPOCH":"2025-10-31T14:12:41.193216","MEAN_MOTION":13.13470262,"ECCENTRICITY":0.0002,"INCLINATION":87.9027,"RA_OF_ASC_NODE":5.6668,"ARG_OF_PERICENTER":99.1817,"MEAN_ANOMALY":260.9539,"EPHEMERIS_TYPE":0,"CLASSIFICATION_TYPE":"U","NORAD_CAT_ID":49205,"ELEMENT_SET_NO":999,"REV_AT_EPOCH":20088,"BSTAR":-0.00068626,"MEAN_MOTION_DOT":-2.38e-6,"MEAN_MOTION_DDOT":0},{"OBJECT_NAME":"ONEWEB-0340","OBJECT_ID":"2021-083W","EPOCH":"2025-10-31T17:54:02.761920","MEAN_MOTION":13.18687726,"ECCENTRICITY":0.0001779,"INCLINATION":87.9225,"RA_OF_ASC_NODE":20.8207,"ARG_OF_PERICENTER":100.2319,"MEAN_ANOMALY":259.9013,"EPHEMERIS_TYPE":0,"CLASSIFICATION_TYPE":"U","NORAD_CAT_ID":49206,"ELEMENT_SET_NO":999,"REV_AT_EPOCH":19986,"BSTAR":0.00015988,"MEAN_MOTION_DOT":7.6e-7,"MEAN_MOTION_DDOT":0},{"OBJECT_NAME":"ONEWEB-0341","OBJECT_ID":"2021-083X","EPOCH":"2025-10-31T18:03:33.270624","MEAN_MOTION":13.18684819,"ECCENTRICITY":0.0002808,"INCLINATION":87.9238,"RA_OF_ASC_NODE":20.8316,"ARG_OF_PERICENTER":76.3368,"MEAN_ANOMALY":283.8077,"EPHEMERIS_TYPE":0,"CLASSIFICATION_TYPE":"U","NORAD_CAT_ID":49207,"ELEMENT_SET_NO":999,"REV_AT_EPOCH":19988,"BSTAR":-0.0018584,"MEAN_MOTION_DOT":-7.2e-6,"MEAN_MOTION_DDOT":0}]
