ONEWEB-0321             
1 49191U 21083F   25304.79421624  .00000008  00000+0 -12157-4 0  9995
2 49191  87.9198 319.9833 0002183  97.1623 262.9758 13.20772042206685
ONEWEB-0322             
1 49192U 21083G   25304.69877822  .00000368  00000+0  97153-3 0  9996
2 49192  87.9021   5.6691 0002230 110.2653 249.8715 13.13473206200925
ONEWEB-0324             
1 49193U 21083H   25304.74751499  .00000136  00000+0  31211-3 0  9990
2 49193  87.9223  20.8175 0001929  96.6356 263.4996 13.18687090199896
ONEWEB-0325             
1 49194U 21083J   25304.75080286  .00000016  00000+0  87156-5 0  9999
2 49194  87.9231  20.8353 0001886 103.0330 257.1013 13.18687176199908
ONEWEB-0326             
1 49195U 21083K   25304.76578951  .00000104  00000+0  23076-3 0  9999
2 49195  87.9225  20.8190 0001521  99.2747 260.8557 13.18687146199894
ONEWEB-0327             
1 49196U 21083L   25304.76552200  .00000119  00000+0  26986-3 0  9998
2 49196  87.9216  20.8423 0001455 104.6917 255.4376 13.18688503199910
ONEWEB-0328             
1 49197U 21083M   25304.68863640  .00000258  00000+0  67086-3 0  9993
2 49197  87.9033   5.6131 0001902  95.1870 264.9476 13.13469949200908
ONEWEB-0331             
1 49198U 21083N   25304.75906361  .00000088  00000+0  18999-3 0  9990
2 49198  87.9227  20.8137 0001601  92.0132 268.1183 13.18686717199909
ONEWEB-0333             
1 49199U 21083P   25304.68355009  .00000008  00000+0 -11830-4 0  9991
2 49199  87.9015   5.6743 0001845 102.5901 257.5435 13.13471922200911
ONEWEB-0334             
1 49200U 21083Q   25304.81158459 -.00000040  00000+0 -13154-3 0  9996
2 49200  87.9189 320.0101 0002584 114.1266 246.0137 13.20770546206642
ONEWEB-0335             
1 49201U 21083R   25304.67846735 -.00000285  00000+0 -81535-3 0  9991
2 49201  87.9016   5.6632 0001698  96.0516 264.0807 13.13471040200926
ONEWEB-0336             
1 49202U 21083S   25304.72587317 -.00000101  00000+0 -31197-3 0  9992
2 49202  87.9027   5.6493 0001612  87.2517 272.8797 13.13470690200928
ONEWEB-0337             
1 49203U 21083T   25304.73588685 -.00000169  00000+0 -49781-3 0  9995
2 49203  87.9037   5.6564 0001814  92.6224 267.5113 13.13472186200923
ONEWEB-0338             
1 49204U 21083U   25304.55904733 -.00000013  00000+0 -63861-4 0  9996
2 49204  87.9193 320.0625 0002084  99.7446 260.3922 13.20772700206639
ONEWEB-0339             
1 49205U 21083V   25304.59214344 -.00000238  00000+0 -68626-3 0  9995
2 49205  87.9027   5.6668 0002000  99.1817 260.9539 13.13470262200884
ONEWEB-0340             
1 49206U 21083W   25304.74586530  .00000076  00000+0  15988-3 0  9993
2 49206  87.9225  20.8207 0001779 100.2319 259.9013 13.18687726199866
ONEWEB-0341             
1 49207U 21083X   25304.75246841 -.00000720  00000+0 -18584-2 0  9995
2 49207  87.9238  20.8316 0002808  76.3368 283.8077 13.18684819199881
